NORAD_CAT_ID,OBJECT_NAME,OBJECT_TYPE,EPOCH,MEAN_MOTION,ECCENTRICITY,INCLINATION,RA_OF_ASC_NODE,ARG_OF_PERICENTER,MEAN_ANOMALY,BSTAR,MEAN_MOTION_DOT,MEAN_MOTION_DDOT,TLE_LINE0,TLE_LINE1,TLE_LINE2,SEMIMAJOR_AXIS,PERIOD,APOGEE,PERIGEE,DECAYED
55300.0,STARLINK-5308,PAYLOAD,2024-06-18 09:54:05,14.98332492,0.0003359,69.9985,170.9186,269.5495,90.5279,2.1909e-05,1.68e-06,0.0,0 STARLINK-5308,1 55300U 23010AH  24170.41256045  .00000168  00000-0  21909-4 0  9990,2 55300  69.9985 170.9186 0003359 269.5495  90.5279 14.98332492 79017,6950.185,96.107,574.385,569.716,0.0
55300.0,STARLINK-5308,PAYLOAD,2024-06-18 17:54:45,14.983305,0.0003355,69.9985,170.0767,269.4446,90.6329,6.4103e-06,-1.7e-07,0.0,0 STARLINK-5308,1 55300U 23010AH  24170.74636161 -.00000017  00000-0  64103-5 0  9995,2 55300  69.9985 170.0767 0003355 269.4446  90.6329 14.98330500 78759,6950.191,96.107,574.388,569.725,0.0
55300.0,STARLINK-5308,PAYLOAD,2024-06-19 09:56:06,14.98329776,0.0003357,69.9985,168.3936,269.325,90.7524,1.8746e-05,1.31e-06,0.0,0 STARLINK-5308,1 55300U 23010AH  24171.41396156  .00000131  00000-0  18746-4 0  9994,2 55300  69.9985 168.3936 0003357 269.3250  90.7524 14.98329776 79168,6950.194,96.107,574.392,569.725,0.0
55300.0,STARLINK-5308,PAYLOAD,2024-06-20 05:09:43,14.98330702,0.0003317,69.9988,166.3738,269.4448,90.6331,-2.4832e-05,-3.89e-06,0.0,0 STARLINK-5308,1 55300U 23010AH  24172.21508184 -.00000389  00000-0 -24832-4 0  9999,2 55300  69.9988 166.3738 0003317 269.4448  90.6331 14.98330702 78979,6950.191,96.107,574.361,569.75,0.0
55300.0,STARLINK-5308,PAYLOAD,2024-06-20 09:58:07,14.98330143,0.0003308,69.9989,165.8688,269.9631,90.1149,-1.8085e-05,-3.09e-06,0.0,0 STARLINK-5308,1 55300U 23010AH  24172.41536198 -.00000309  00000-0 -18085-4 0  9992,2 55300  69.9989 165.8688 0003308 269.9631  90.1149 14.98330143 79317,6950.192,96.107,574.357,569.758,0.0
55300.0,STARLINK-5308,PAYLOAD,2024-06-20 16:22:39,14.98329953,0.0003298,69.999,165.1956,270.1421,89.936,-1.7331e-05,-3e-06,0.0,0 STARLINK-5308,1 55300U 23010AH  24172.68240196 -.00000300  00000-0 -17331-4 0  9995,2 55300  69.9990 165.1956 0003298 270.1421  89.9360 14.98329953 79351,6950.193,96.107,574.35,569.766,0.0
55300.0,STARLINK-5308,PAYLOAD,2024-06-21 05:11:44,14.98325602,0.0003247,69.9992,163.8493,269.7497,90.329,5.4971e-05,5.63e-06,0.0,0 STARLINK-5308,1 55300U 23010AH  24173.21648329  .00000563  00000-0  54971-4 0  9995,2 55300  69.9992 163.8493 0003247 269.7497  90.3290 14.98325602 79125,6950.206,96.107,574.328,569.815,0.0
55300.0,STARLINK-5308,PAYLOAD,2024-06-21 10:00:08,14.98329725,0.0003258,69.9992,163.3444,269.2045,90.8741,8.9166e-06,1.3e-07,0.0,0 STARLINK-5308,1 55300U 23010AH  24173.41676139  .00000013  00000-0  89166-5 0  9992,2 55300  69.9992 163.3444 0003258 269.2045  90.8741 14.98329725 79465,6950.194,96.107,574.323,569.794,0.0
55300.0,STARLINK-5308,PAYLOAD,2024-06-22 05:13:45,14.9832755,0.0003255,69.9993,161.3247,268.8248,91.2538,-7.6419e-06,-1.84e-06,0.0,0 STARLINK-5308,1 55300U 23010AH  24174.21788337 -.00000184  00000-0 -76419-5 0  9993,2 55300  69.9993 161.3247 0003255 268.8248  91.2538 14.98327550 79274,6950.2,96.107,574.328,569.803,0.0
55300.0,STARLINK-5308,PAYLOAD,2024-06-22 10:02:09,14.98328544,0.0003237,69.9994,160.8198,268.6205,91.4583,3.4976e-06,-5.1e-07,0.0,0 STARLINK-5308,1 55300U 23010AH  24174.41816254 -.00000051  00000-0  34976-5 0  9999,2 55300  69.9994 160.8198 0003237 268.6205  91.4583 14.98328544 79619,6950.197,96.107,574.312,569.813,0.0
55300.0,STARLINK-5308,PAYLOAD,2024-06-22 22:51:13,14.98330001,0.0003269,69.9993,159.4734,267.3378,92.7407,1.0015e-05,2.6e-07,0.0,0 STARLINK-5308,1 55300U 23010AH  24174.95224118  .00000026  00000-0  10015-4 0  9998,2 55300  69.9993 159.4734 0003269 267.3378  92.7407 14.98330001 79698,6950.193,96.107,574.33,569.786,0.0
55300.0,STARLINK-5308,PAYLOAD,2024-06-23 05:15:45,14.98330307,0.0003288,69.9993,158.8,267.5335,92.5447,-2.4056e-06,-1.22e-06,0.0,0 STARLINK-5308,1 55300U 23010AH  24175.21928128 -.00000122  00000-0 -24056-5 0  9990,2 55300  69.9993 158.8000 0003288 267.5335  92.5447 14.98330307 79425,6950.192,96.107,574.342,569.772,0.0
55300.0,STARLINK-5308,PAYLOAD,2024-06-23 08:28:01,14.98331971,0.0003288,69.9993,158.4633,267.7283,92.35,1.5642e-05,9.4e-07,0.0,0 STARLINK-5308,1 55300U 23010AH  24175.35279955  .00000094  00000-0  15642-4 0  9998,2 55300  69.9993 158.4633 0003288 267.7283  92.3500 14.98331971 79759,6950.187,96.107,574.337,569.767,0.0
55300.0,STARLINK-5308,PAYLOAD,2024-06-24 05:17:46,14.98333459,0.0003298,69.9992,156.2752,267.5999,92.4783,3.9475e-05,3.78e-06,0.0,0 STARLINK-5308,1 55300U 23010AH  24176.22067652  .00000378  00000-0  39475-4 0  9999,2 55300  69.9992 156.2752 0003298 267.5999  92.4783 14.98333459 79576,6950.182,96.107,574.339,569.755,0.0
55300.0,STARLINK-5308,PAYLOAD,2024-06-24 08:30:02,14.98334753,0.0003274,69.9993,155.9387,267.222,92.8565,5.3278e-05,5.43e-06,0.0,0 STARLINK-5308,1 55300U 23010AH  24176.35419488  .00000543  00000-0  53278-4 0  9992,2 55300  69.9993 155.9387 0003274 267.2220  92.8565 14.98334753 79902,6950.178,96.107,574.319,569.768,0.0
55300.0,STARLINK-5308,PAYLOAD,2024-06-25 05:19:47,14.98326892,0.0003168,69.9995,153.7505,265.7584,94.3213,-3.9342e-05,-5.62e-06,0.0,0 STARLINK-5308,1 55300U 23010AH  24177.22208198 -.00000562  00000-0 -39342-4 0  9992,2 55300  69.9995 153.7505 0003168 265.7584  94.3213 14.98326892 79722,6950.203,96.107,574.269,569.866,0.0
55300.0,STARLINK-5308,PAYLOAD,2024-06-25 08:32:03,14.98327781,0.0003099,69.9997,153.4139,267.153,92.9275,-3.4045e-05,-4.99e-06,0.0,0 STARLINK-5308,1 55300U 23010AH  24177.35560162 -.00000499  00000-0 -34045-4 0  9992,2 55300  69.9997 153.4139 0003099 267.1530  92.9275 14.98327781 80052,6950.2,96.107,574.219,569.911,0.0
55300.0,STARLINK-5308,PAYLOAD,2024-06-25 22:57:16,14.98332926,0.0003081,69.9997,151.8996,264.82,95.2607,-2.2154e-05,-3.57e-06,0.0,0 STARLINK-5308,1 55300U 23010AH  24177.95643761 -.00000357  00000-0 -22154-4 0  9996,2 55300  69.9997 151.8996 0003081 264.8200  95.2607 14.98332926 80146,6950.184,96.107,574.19,569.907,0.0
55300.0,STARLINK-5308,PAYLOAD,2024-06-26 05:21:48,14.98333816,0.0003077,69.9996,151.2259,263.4684,96.6125,-6.8062e-06,-1.74e-06,0.0,0 STARLINK-5308,1 55300U 23010AH  24178.22347597 -.00000174  00000-0 -68062-5 0  9991,2 55300  69.9996 151.2259 0003077 263.4684  96.6125 14.98333816 79874,6950.181,96.107,574.185,569.908,0.0
55300.0,STARLINK-5308,PAYLOAD,2024-06-26 08:34:04,14.98335014,0.0003069,69.9996,150.8894,263.3341,96.7469,7.2953e-06,-6e-08,0.0,0 STARLINK-5308,1 55300U 23010AH  24178.35699445 -.00000006  00000-0  72953-5 0  9994,2 55300  69.9996 150.8894 0003069 263.3341  96.7469 14.98335014 80207,6950.177,96.107,574.175,569.909,0.0
55300.0,STARLINK-5308,PAYLOAD,2024-06-27 05:23:49,14.98325816,0.0002915,70.0,148.7022,254.8979,105.1858,2.7258e-05,2.32e-06,0.0,0 STARLINK-5308,1 55300U 23010AH  24179.22488005  .00000232  00000-0  27258-4 0  9996,2 55300  70.0000 148.7022 0002915 254.8979 105.1858 14.98325816 80022,6950.206,96.107,574.097,570.045,0.0
55300.0,STARLINK-5308,PAYLOAD,2024-06-27 23:01:18,14.98329667,0.0002834,70.0,146.8504,266.3859,93.6976,-1.6938e-05,-2.95e-06,0.0,0 STARLINK-5308,1 55300U 23010AH  24179.95924080 -.00000295  00000-0 -16938-4 0  9998,2 55300  70.0000 146.8504 0002834 266.3859  93.6976 14.98329667 80447,6950.194,96.107,574.029,570.089,0.0
55300.0,STARLINK-5308,PAYLOAD,2024-06-28 05:25:50,14.98330469,0.0002817,69.9999,146.1764,269.0313,91.0523,3.5802e-07,-8.9e-07,0.0,0 STARLINK-5308,1 55300U 23010AH  24180.22627993 -.00000089  00000-0  35802-6 0  9996,2 55300  69.9999 146.1764 0002817 269.0313  91.0523 14.98330469 80170,6950.191,96.107,574.014,570.099,0.0
55300.0,STARLINK-5308,PAYLOAD,2024-06-28 07:01:58,14.98331355,0.0002808,70.0,146.0081,269.3249,90.7588,1.1407e-05,4.3e-07,0.0,0 STARLINK-5308,1 55300U 23010AH  24180.29303906  .00000043  00000-0  11407-4 0  9990,2 55300  70.0000 146.0081 0002808 269.3249  90.7588 14.98331355 80495,6950.189,96.107,574.005,570.102,0.0
55300.0,STARLINK-5308,PAYLOAD,2024-06-28 23:03:18,14.98333778,0.0002886,69.9998,144.3247,269.5082,90.5746,7.5321e-05,8.06e-06,0.0,0 STARLINK-5308,1 55300U 23010AH  24180.96063426  .00000806  00000-0  75321-4 0  9996,2 55300  69.9998 144.3247 0002886 269.5082  90.5746 14.98333778 80592,6950.181,96.107,574.052,570.04,0.0
55300.0,STARLINK-5308,PAYLOAD,2024-06-29 05:27:50,14.98336727,0.0002868,69.9998,143.6515,268.2496,91.8335,0.00010178,1.122e-05,0.0,0 STARLINK-5308,1 55300U 23010AH  24181.22767059  .00001122  00000-0  10178-3 0  9999,2 55300  69.9998 143.6515 0002868 268.2496  91.8335 14.98336727 80323,6950.172,96.107,574.03,570.044,0.0
55300.0,STARLINK-5308,PAYLOAD,2024-06-29 07:03:58,14.98337427,0.0002862,69.9999,143.4832,268.307,91.7761,0.00010779,1.194e-05,0.0,0 STARLINK-5308,1 55300U 23010AH  24181.29442970  .00001194  00000-0  10779-3 0  9994,2 55300  69.9999 143.4832 0002862 268.3070  91.7761 14.98337427 80642,6950.17,96.107,574.024,570.046,0.0
55300.0,STARLINK-5308,PAYLOAD,2024-06-29 15:04:39,14.98329712,0.0002806,69.9999,142.6416,273.1754,86.9084,1.2739e-05,5.9e-07,0.0,0 STARLINK-5308,1 55300U 23010AH  24181.62823686  .00000059  00000-0  12739-4 0  9996,2 55300  69.9999 142.6416 0002806 273.1754  86.9084 14.98329712 80385,6950.194,96.107,574.009,570.109,0.0
55300.0,STARLINK-5308,PAYLOAD,2024-06-30 05:29:53,14.98321489,0.0002886,69.9997,141.1255,268.9332,91.1496,-0.00010927,-1.396e-05,0.0,0 STARLINK-5308,1 55300U 23010AH  24182.22908647 -.00001396  00000-0 -10927-3 0  9997,2 55300  69.9997 141.1255 0002886 268.9332  91.1496 14.98321489 80478,6950.219,96.108,574.09,570.078,0.0
55300.0,STARLINK-5308,PAYLOAD,2024-06-30 07:06:01,14.98323071,0.0002884,69.9999,140.9575,269.0927,90.9902,-8.8281e-05,-1.146e-05,0.0,0 STARLINK-5308,1 55300U 23010AH  24182.29584521 -.00001146  00000-0 -88281-4 0  9997,2 55300  69.9999 140.9575 0002884 269.0927  90.9902 14.98323071 80795,6950.214,96.107,574.084,570.075,0.0
